SUCHAI
1 42787U 17036Y   17198.94741852  .00003774  00000-0  17455-3 0  9997
2 42787  97.4481 258.4248 0012979 160.1141 200.0603 15.20695584  3546
